start=new Date('2023-01-25T00:00:00.000Z').valueOf();
sats=[{"FILE":"3759710","EPOCH":"2023-01-24T11:53:37.376736","PERIOD":"95.592","MEAN_ELEMENT_THEORY":"SGP4","SITE":"AFETR","ARG_OF_PERICENTER":"82.9481","MEAN_MOTION_DDOT":"0.0000000000000","CENTER_NAME":"EARTH","OBJECT_TYPE":"PAYLOAD","GP_ID":"223632540","EPHEMERIS_TYPE":"0","ELEMENT_SET_NO":"999","INCLINATION":"53.0529","SEMIMAJOR_AXIS":"6925.362","RA_OF_ASC_NODE":"155.1579","MEAN_ANOMALY":"277.1647","NORAD_CAT_ID":"45583","REV_AT_EPOCH":"15305","LAUNCH_DATE":"2020-04-22","OBJECT_NAME":"STARLINK-1340","ECCENTRICITY":"0.00012270","MEAN_MOTION":"15.06395538","COUNTRY_CODE":"US","TLE_LINE1":"1 45583U 20025BE  23024.49557149  .00000814  00000-0  73517-4 0  9999","BSTAR":"0.00007351700000","REF_FRAME":"TEME","APOAPSIS":"548.077","CLASSIFICATION_TYPE":"U","PERIAPSIS":"546.377","RCS_SIZE":"LARGE","DECAY_DATE":null,"OBJECT_ID":"2020-025BE","TIME_SYSTEM":"UTC","TLE_LINE2":"2 45583  53.0529 155.1579 0001227  82.9481 277.1647 15.06395538153051","MEAN_MOTION_DOT":"0.00000814"},{"TLE_LINE2":"2 45584  53.0541 155.7978 0001307  86.7308 273.3831 15.06392697153038","MEAN_MOTION_DOT":"0.00001587","DECAY_DATE":null,"RCS_SIZE":"LARGE","OBJECT_ID":"2020-025BF","TIME_SYSTEM":"UTC","PERIAPSIS":"546.331","REF_FRAME":"TEME","APOAPSIS":"548.141","CLASSIFICATION_TYPE":"U","BSTAR":"0.00012546000000","TLE_LINE1":"1 45584U 20025BF  23024.35087895  .00001587  00000-0  12546-3 0  9993","COUNTRY_CODE":"US","REV_AT_EPOCH":"15303","LAUNCH_DATE":"2020-04-22","OBJECT_NAME":"STARLINK-1343","ECCENTRICITY":"0.00013070","MEAN_MOTION":"15.06392697","NORAD_CAT_ID":"45584","MEAN_ANOMALY":"273.3831","SEMIMAJOR_AXIS":"6925.371","RA_OF_ASC_NODE":"155.7978","INCLINATION":"53.0541","EPHEMERIS_TYPE":"0","GP_ID":"223632184","ELEMENT_SET_NO":"999","MEAN_MOTION_DDOT":"0.0000000000000","CENTER_NAME":"EARTH","OBJECT_TYPE":"PAYLOAD","PERIOD":"95.593","MEAN_ELEMENT_THEORY":"SGP4","SITE":"AFETR","ARG_OF_PERICENTER":"86.7308","EPOCH":"2023-01-24T08:25:15.941280","FILE":"3759710"},{"NORAD_CAT_ID":"45586","MEAN_ANOMALY":"291.7238","RA_OF_ASC_NODE":"155.7003","SEMIMAJOR_AXIS":"6925.363","INCLINATION":"53.0524","EPHEMERIS_TYPE":"0","GP_ID":"223632551","ELEMENT_SET_NO":"999","MEAN_MOTION_DDOT":"0.0000000000000","CENTER_NAME":"EARTH","OBJECT_TYPE":"PAYLOAD","PERIOD":"95.592","MEAN_ELEMENT_THEORY":"SGP4","SITE":"AFETR","ARG_OF_PERICENTER":"68.3872","EPOCH":"2023-01-24T08:58:28.118784","FILE":"3759721","TLE_LINE2":"2 45586  53.0524 155.7003 0001134  68.3872 291.7238 15.06395201153028","MEAN_MOTION_DOT":"0.00000647","DECAY_DATE":null,"RCS_SIZE":"LARGE","OBJECT_ID":"2020-025BH","TIME_SYSTEM":"UTC","PERIAPSIS":"546.443","REF_FRAME":"TEME","APOAPSIS":"548.014","CLASSIFICATION_TYPE":"U","BSTAR":"0.00006232500000","TLE_LINE1":"1 45586U 20025BH  23024.37393656  .00000647  00000-0  62325-4 0  9999","COUNTRY_CODE":"US","REV_AT_EPOCH":"15302","LAUNCH_DATE":"2020-04-22","OBJECT_NAME":"STARLINK-1347","MEAN_MOTION":"15.06395201","ECCENTRICITY":"0.00011340"},{"EPOCH":"2023-01-24T14:38:09.566016","FILE":"3760057","MEAN_MOTION_DDOT":"0.0000000000000","CENTER_NAME":"EARTH","OBJECT_TYPE":"PAYLOAD","PERIOD":"95.592","MEAN_ELEMENT_THEORY":"SGP4","SITE":"AFETR","ARG_OF_PERICENTER":"97.2713","INCLINATION":"53.0529","EPHEMERIS_TYPE":"0","GP_ID":"223639062","ELEMENT_SET_NO":"999","NORAD_CAT_ID":"45587","MEAN_ANOMALY":"262.8408","SEMIMAJOR_AXIS":"6925.341","RA_OF_ASC_NODE":"154.6383","COUNTRY_CODE":"US","REV_AT_EPOCH":"15307","LAUNCH_DATE":"2020-04-22","OBJECT_NAME":"STARLINK-1349","MEAN_MOTION":"15.06402385","ECCENTRICITY":"0.00011590","BSTAR":"0.00012897000000","TLE_LINE1":"1 45587U 20025BJ  23024.60983294  .00001640  00000-0  12897-3 0  9991","PERIAPSIS":"546.404","REF_FRAME":"TEME","APOAPSIS":"548.009","CLASSIFICATION_TYPE":"U","TLE_LINE2":"2 45587  53.0529 154.6383 0001159  97.2713 262.8408 15.06402385153070","MEAN_MOTION_DOT":"0.00001640","RCS_SIZE":"LARGE","DECAY_DATE":null,"OBJECT_ID":"2020-025BJ","TIME_SYSTEM":"UTC"},{"MEAN_MOTION_DOT":"0.00001663","TLE_LINE2":"2 45588  53.0549 154.4359 0001318  66.7698 293.3430 15.06392929153070","TIME_SYSTEM":"UTC","RCS_SIZE":"LARGE","DECAY_DATE":null,"OBJECT_ID":"2020-025BK","PERIAPSIS":"546.322","APOAPSIS":"548.148","CLASSIFICATION_TYPE":"U","REF_FRAME":"TEME","BSTAR":"0.00013051000000","TLE_LINE1":"1 45588U 20025BK  23024.65407170  .00001663  00000-0  13051-3 0  9999","COUNTRY_CODE":"US","OBJECT_NAME":"STARLINK-1360","MEAN_MOTION":"15.06392929","ECCENTRICITY":"0.00013180","REV_AT_EPOCH":"15307","LAUNCH_DATE":"2020-04-22","NORAD_CAT_ID":"45588","MEAN_ANOMALY":"293.3430","SEMIMAJOR_AXIS":"6925.370","RA_OF_ASC_NODE":"154.4359","INCLINATION":"53.0549","GP_ID":"223640991","EPHEMERIS_TYPE":"0","ELEMENT_SET_NO":"999","OBJECT_TYPE":"PAYLOAD","MEAN_MOTION_DDOT":"0.0000000000000","CENTER_NAME":"EARTH","ARG_OF_PERICENTER":"66.7698","MEAN_ELEMENT_THEORY":"SGP4","PERIOD":"95.593","SITE":"AFETR","EPOCH":"2023-01-24T15:41:51.794880","FILE":"3760113"},{"EPOCH":"2023-01-24T18:47:37.286016","FILE":"3760013","OBJECT_TYPE":"PAYLOAD","CENTER_NAME":"EARTH","MEAN_MOTION_DDOT":"0.0000000000000","ARG_OF_PERICENTER":"80.0277","SITE":"AFETR","MEAN_ELEMENT_THEORY":"SGP4","PERIOD":"95.592","INCLINATION":"53.0525","ELEMENT_SET_NO":"999","EPHEMERIS_TYPE":"0","GP_ID":"223638280","NORAD_CAT_ID":"45589","MEAN_ANOMALY":"280.0857","SEMIMAJOR_AXIS":"6925.328","RA_OF_ASC_NODE":"153.8665","COUNTRY_CODE":"US","MEAN_MOTION":"15.06406740","ECCENTRICITY":"0.00012910","OBJECT_NAME":"STARLINK-1364","LAUNCH_DATE":"2020-04-22","REV_AT_EPOCH":"15309","BSTAR":"0.00017241000000","TLE_LINE1":"1 45589U 20025BL  23024.78307044  .00002288  00000-0  17241-3 0  9992","PERIAPSIS":"546.299","CLASSIFICATION_TYPE":"U","APOAPSIS":"548.087","REF_FRAME":"TEME","MEAN_MOTION_DOT":"0.00002288","TLE_LINE2":"2 45589  53.0525 153.8665 0001291  80.0277 280.0857 15.06406740153095","TIME_SYSTEM":"UTC","OBJECT_ID":"2020-025BL","DECAY_DATE":null,"RCS_SIZE":"LARGE"},{"PERIOD":"95.593","MEAN_ELEMENT_THEORY":"SGP4","SITE":"AFETR","ARG_OF_PERICENTER":"85.7510","MEAN_MOTION_DDOT":"0.0000000000000","CENTER_NAME":"EARTH","OBJECT_TYPE":"PAYLOAD","FILE":"3758956","EPOCH":"2023-01-23T17:41:33.296352","SEMIMAJOR_AXIS":"6925.372","RA_OF_ASC_NODE":"188.5505","NORAD_CAT_ID":"45590","MEAN_ANOMALY":"274.3623","EPHEMERIS_TYPE":"0","GP_ID":"223616346","ELEMENT_SET_NO":"999","INCLINATION":"53.0534","TLE_LINE1":"1 45590U 20025BM  23023.73719093  .00001918  00000-0  14765-3 0  9996","BSTAR":"0.00014765000000","REV_AT_EPOCH":"15252","LAUNCH_DATE":"2020-04-22","OBJECT_NAME":"STARLINK-1365","MEAN_MOTION":"15.06392205","ECCENTRICITY":"0.00012600","COUNTRY_CODE":"US","DECAY_DATE":null,"RCS_SIZE":"LARGE","OBJECT_ID":"2020-025BM","TIME_SYSTEM":"UTC","TLE_LINE2":"2 45590  53.0534 188.5505 0001260  85.7510 274.3623 15.06392205152527","MEAN_MOTION_DOT":"0.00001918","REF_FRAME":"TEME","APOAPSIS":"548.110","CLASSIFICATION_TYPE":"U","PERIAPSIS":"546.365"},{"COUNTRY_CODE":"US","LAUNCH_DATE":"2020-06-04","REV_AT_EPOCH":"14647","MEAN_MOTION":"15.06393254","ECCENTRICITY":"0.00012290","OBJECT_NAME":"STARLINK-1441","BSTAR":"0.00010620000000","TLE_LINE1":"1 45658U 20035B   23024.50755788  .00001301  00000-0  10620-3 0  9991","PERIAPSIS":"546.383","REF_FRAME":"TEME","CLASSIFICATION_TYPE":"U","APOAPSIS":"548.085","TLE_LINE2":"2 45658  53.0557 145.0996 0001229  71.1109 289.0013 15.06393254146475","MEAN_MOTION_DOT":"0.00001301","OBJECT_ID":"2020-035B","RCS_SIZE":"LARGE","DECAY_DATE":null,"TIME_SYSTEM":"UTC","EPOCH":"2023-01-24T12:10:53.000832","FILE":"3759819","CENTER_NAME":"EARTH","MEAN_MOTION_DDOT":"0.0000000000000","OBJECT_TYPE":"PAYLOAD","SITE":"AFETR","PERIOD":"95.593","MEAN_ELEMENT_THEORY":"SGP4","ARG_OF_PERICENTER":"71.1109","INCLINATION":"53.0557","ELEMENT_SET_NO":"999","EPHEMERIS_TYPE":"0","GP_ID":"223635095","MEAN_ANOMALY":"289.0013","NORAD_CAT_ID":"45658","RA_OF_ASC_NODE":"145.0996","SEMIMAJOR_AXIS":"6925.369"},{"REV_AT_EPOCH":"14647","LAUNCH_DATE":"2020-06-04","OBJECT_NAME":"STARLINK-1442","ECCENTRICITY":"0.00011810","MEAN_MOTION":"15.06397907","COUNTRY_CODE":"US","TLE_LINE1":"1 45659U 20035C   23024.51029352  .00004269  00000-0  30532-3 0  9994","BSTAR":"0.00030532000000","REF_FRAME":"TEME","APOAPSIS":"548.038","CLASSIFICATION_TYPE":"U","PERIAPSIS":"546.402","RCS_SIZE":"LARGE","DECAY_DATE":null,"OBJECT_ID":"2020-035C","TIME_SYSTEM":"UTC","TLE_LINE2":"2 45659  53.0537 145.0788 0001181  83.7507 276.3616 15.06397907146478","MEAN_MOTION_DOT":"0.00004269","FILE":"3759819","EPOCH":"2023-01-24T12:14:49.360128","MEAN_ELEMENT_THEORY":"SGP4","PERIOD":"95.592","SITE":"AFETR","ARG_OF_PERICENTER":"83.7507","MEAN_MOTION_DDOT":"0.0000000000000","CENTER_NAME":"EARTH","OBJECT_TYPE":"PAYLOAD","EPHEMERIS_TYPE":"0","GP_ID":"223634663","ELEMENT_SET_NO":"999","INCLINATION":"53.0537","RA_OF_ASC_NODE":"145.0788","SEMIMAJOR_AXIS":"6925.355","NORAD_CAT_ID":"45659","MEAN_ANOMALY":"276.3616"},{"EPOCH":"2023-01-24T12:26:48.002496","FILE":"3759819","MEAN_MOTION_DDOT":"0.0000000000000","CENTER_NAME":"EARTH","OBJECT_TYPE":"PAYLOAD","PERIOD":"95.592","MEAN_ELEMENT_THEORY":"SGP4","SITE":"AFETR","ARG_OF_PERICENTER":"90.8724","INCLINATION":"53.0538","EPHEMERIS_TYPE":"0","GP_ID":"223635084","ELEMENT_SET_NO":"999","NORAD_CAT_ID":"45660","MEAN_ANOMALY":"269.2405","RA_OF_ASC_NODE":"145.0550","SEMIMAJOR_AXIS":"6925.354","COUNTRY_CODE":"US","REV_AT_EPOCH":"14647","LAUNCH_DATE":"2020-06-04","OBJECT_NAME":"STARLINK-1443","MEAN_MOTION":"15.06398227","ECCENTRICITY":"0.00012230","BSTAR":"0.00012053000000","TLE_LINE1":"1 45660U 20035D   23024.51861114  .00001514  00000-0  12053-3 0  9994","PERIAPSIS":"546.372","REF_FRAME":"TEME","APOAPSIS":"548.066","CLASSIFICATION_TYPE":"U","TLE_LINE2":"2 45660  53.0538 145.0550 0001223  90.8724 269.2405 15.06398227146478","MEAN_MOTION_DOT":"0.00001514","DECAY_DATE":null,"RCS_SIZE":"LARGE","OBJECT_ID":"2020-035D","TIME_SYSTEM":"UTC"}];
